NORAD_CAT_ID,OBJECT_NAME,OBJECT_TYPE,EPOCH,MEAN_MOTION,ECCENTRICITY,INCLINATION,RA_OF_ASC_NODE,ARG_OF_PERICENTER,MEAN_ANOMALY,BSTAR,MEAN_MOTION_DOT,MEAN_MOTION_DDOT,TLE_LINE0,TLE_LINE1,TLE_LINE2,SEMIMAJOR_AXIS,PERIOD,APOGEE,PERIGEE,DECAYED
53967.0,STARLINK-4634,PAYLOAD,2023-12-01 07:28:12,15.08848463,0.0002354,53.2184,347.3819,122.8726,237.2493,0.0013036,0.00020525,0.0,0 STARLINK-4634,1 53967U 22125D   23335.31125851  .00020525  00000-0  13036-2 0  9993,2 53967  53.2184 347.3819 0002354 122.8726 237.2493 15.08848463 64188,6917.855,95.437,541.348,538.091,0.0
53967.0,STARLINK-4634,PAYLOAD,2023-12-02 07:18:58,15.08895027,0.0002271,53.2186,342.9272,104.2629,255.8616,0.0022163,0.00035215,0.0,0 STARLINK-4634,1 53967U 22125D   23336.30484878  .00035215  00000-0  22163-2 0  9993,2 53967  53.2186 342.9272 0002271 104.2629 255.8616 15.08895027 64268,6917.712,95.434,541.148,538.006,0.0
53967.0,STARLINK-4634,PAYLOAD,2023-12-03 03:59:01,15.08798768,0.000204,53.2189,339.0622,106.5663,253.5553,-0.0012063,-0.00019414,0.0,0 STARLINK-4634,1 53967U 22125D   23337.16598512 -.00019414  00000-0 -12063-2 0  9992,2 53967  53.2189 339.0622 0002040 106.5663 253.5553 15.08798768 64465,6918.006,95.44,541.283,538.46,0.0
53967.0,STARLINK-4634,PAYLOAD,2023-12-03 10:20:34,15.08793239,0.0001968,53.2177,337.8703,105.2611,254.8599,-0.00039196,-6.513e-05,0.0,0 STARLINK-4634,1 53967U 22125D   23337.43095506 -.00006513  00000-0 -39196-3 0  9990,2 53967  53.2177 337.8703 0001968 105.2611 254.8599 15.08793239 64434,6918.023,95.441,541.25,538.527,0.0
53967.0,STARLINK-4634,PAYLOAD,2023-12-03 11:55:58,15.08777574,0.000251,53.2179,337.5669,124.9933,235.1295,-0.0010201,-0.0001646,0.0,0 STARLINK-4634,1 53967U 22125D   23337.49720052 -.00016460  00000-0 -10201-2 0  9994,2 53967  53.2179 337.5669 0002510 124.9933 235.1295 15.08777574 64511,6918.071,95.442,541.673,538.2,0.0
53967.0,STARLINK-4634,PAYLOAD,2023-12-04 03:49:50,15.08821051,0.0002218,53.2181,334.6001,107.6691,252.4544,0.0012053,0.00018937,0.0,0 STARLINK-4634,1 53967U 22125D   23338.15961705  .00018937  00000-0  12053-2 0  9996,2 53967  53.2181 334.6001 0002218 107.6691 252.4544 15.08821051 64616,6917.938,95.439,541.338,538.269,0.0
53967.0,STARLINK-4634,PAYLOAD,2023-12-04 07:00:36,15.08832374,0.0002192,53.2176,334.0056,101.11,259.0139,0.00080873,0.00012604,0.0,0 STARLINK-4634,1 53967U 22125D   23338.29209317  .00012604  00000-0  80873-3 0  9996,2 53967  53.2176 334.0056 0002192 101.1100 259.0139 15.08832374 64566,6917.904,95.438,541.285,538.252,0.0
53967.0,STARLINK-4634,PAYLOAD,2023-12-05 03:40:36,15.08882643,0.0002176,53.2171,330.1389,104.8645,255.2588,0.001282,0.00020198,0.0,0 STARLINK-4634,1 53967U 22125D   23339.15320031  .00020198  00000-0  12820-2 0  9992,2 53967  53.2171 330.1389 0002176 104.8645 255.2588 15.08882643 64765,6917.75,95.435,541.12,538.11,0.0
53967.0,STARLINK-4634,PAYLOAD,2023-12-05 08:26:44,15.08905566,0.000218,53.2169,329.248,106.1232,254.0,0.0013013,0.0002052,0.0,0 STARLINK-4634,1 53967U 22125D   23339.35190913  .00020520  00000-0  13013-2 0  9992,2 53967  53.2169 329.2480 0002180 106.1232 254.0000 15.08905566 64794,6917.68,95.433,541.053,538.037,0.0
53967.0,STARLINK-4634,PAYLOAD,2023-12-05 22:45:12,15.08864737,0.0002243,53.2173,326.5643,134.1083,226.0094,0.00075623,0.00011776,0.0,0 STARLINK-4634,1 53967U 22125D   23339.94806246  .00011776  00000-0  75623-3 0  9999,2 53967  53.2173 326.5643 0002243 134.1083 226.0094 15.08864737 64814,6917.805,95.436,541.221,538.118,0.0
53967.0,STARLINK-4634,PAYLOAD,2023-12-06 03:31:22,15.08861829,0.0001957,53.2164,325.6738,100.4428,259.6785,0.00098514,0.00015435,0.0,0 STARLINK-4634,1 53967U 22125D   23340.14678299  .00015435  00000-0  98514-3 0  9998,2 53967  53.2164 325.6738 0001957 100.4428 259.6785 15.08861829 64918,6917.814,95.436,541.032,538.325,0.0
53967.0,STARLINK-4634,PAYLOAD,2023-12-06 06:42:08,15.08850546,0.0002133,53.2164,325.0828,96.439,263.6845,0.00090789,0.00014195,0.0,0 STARLINK-4634,1 53967U 22125D   23340.27926306  .00014195  00000-0  90789-3 0  9995,2 53967  53.2164 325.0828 0002133  96.4390 263.6845 15.08850546 64939,6917.848,95.437,541.189,538.238,0.0
53967.0,STARLINK-4634,PAYLOAD,2023-12-06 13:03:40,15.08851062,0.0002162,53.2161,323.8945,88.1485,271.9755,0.0010012,0.00015687,0.0,0 STARLINK-4634,1 53967U 22125D   23340.54422271  .00015687  00000-0  10012-2 0  9994,2 53967  53.2161 323.8945 0002162  88.1485 271.9755 15.08851062 64900,6917.847,95.437,541.207,538.216,0.0
53967.0,STARLINK-4634,PAYLOAD,2023-12-06 22:35:59,15.08835409,0.000197,53.2164,322.1096,101.0941,259.0273,0.00051121,7.856e-05,0.0,0 STARLINK-4634,1 53967U 22125D   23340.94166610  .00007856  00000-0  51121-3 0  9996,2 53967  53.2164 322.1096 0001970 101.0941 259.0273 15.08835409 64965,6917.894,95.438,541.122,538.397,0.0
53967.0,STARLINK-4634,PAYLOAD,2023-12-07 03:22:09,15.08833372,0.0001958,53.2161,321.2177,104.042,256.0789,0.0007678,0.0001195,0.0,0 STARLINK-4634,1 53967U 22125D   23341.14038696  .00011950  00000-0  76780-3 0  9999,2 53967  53.2161 321.2177 0001958 104.0420 256.0789 15.08833372 65061,6917.901,95.438,541.12,538.411,0.0
53967.0,STARLINK-4634,PAYLOAD,2023-12-07 08:08:18,15.08842288,0.0002033,53.2161,320.3249,98.2987,261.8236,0.00065886,0.00010214,0.0,0 STARLINK-4634,1 53967U 22125D   23341.33910673  .00010214  00000-0  65886-3 0  9991,2 53967  53.2161 320.3249 0002033  98.2987 261.8236 15.08842288 65021,6917.873,95.437,541.145,538.332,0.0
53967.0,STARLINK-4634,PAYLOAD,2023-12-08 03:12:56,15.08843228,0.0002218,53.2162,316.7564,107.364,252.7595,0.00050541,7.765e-05,0.0,0 STARLINK-4634,1 53967U 22125D   23342.13398862  .00007765  00000-0  50541-3 0  9999,2 53967  53.2162 316.7564 0002218 107.3640 252.7595 15.08843228 65217,6917.871,95.437,541.27,538.201,0.0
53967.0,STARLINK-4634,PAYLOAD,2023-12-08 04:48:19,15.08842386,0.0002199,53.2164,316.4592,104.851,255.2725,0.00041977,6.399e-05,0.0,0 STARLINK-4634,1 53967U 22125D   23342.20022876  .00006399  00000-0  41977-3 0  9991,2 53967  53.2164 316.4592 0002199 104.8510 255.2725 15.08842386 65153,6917.873,95.437,541.259,538.217,0.0
53967.0,STARLINK-4634,PAYLOAD,2023-12-08 22:17:34,15.08846352,0.0002135,53.2161,313.1878,100.1141,260.0092,0.00035632,5.388e-05,0.0,0 STARLINK-4634,1 53967U 22125D   23342.92886859  .00005388  00000-0  35632-3 0  9997,2 53967  53.2161 313.1878 0002135 100.1141 260.0092 15.08846352 65260,6917.861,95.437,541.203,538.249,0.0
53967.0,STARLINK-4634,PAYLOAD,2023-12-09 04:39:06,15.08847316,0.0002249,53.2173,311.9984,103.7284,256.3959,0.0003197,4.805e-05,0.0,0 STARLINK-4634,1 53967U 22125D   23343.19382736  .00004805  00000-0  31970-3 0  9996,2 53967  53.2173 311.9984 0002249 103.7284 256.3959 15.08847316 65306,6917.858,95.437,541.279,538.167,0.0
53967.0,STARLINK-4634,PAYLOAD,2023-12-10 07:40:39,15.08846728,0.0002232,53.217,306.9459,84.7532,275.3715,0.00017267,2.461e-05,0.0,0 STARLINK-4634,1 53967U 22125D   23344.31990688  .00002461  00000-0  17267-3 0  9991,2 53967  53.2170 306.9459 0002232  84.7532 275.3715 15.08846728 65543,6917.86,95.437,541.269,538.181,0.0
53967.0,STARLINK-4634,PAYLOAD,2023-12-11 04:20:40,15.08842794,0.0002207,53.2175,303.0772,101.0237,259.1003,5.2591e-05,5.49e-06,0.0,0 STARLINK-4634,1 53967U 22125D   23345.18102588  .00000549  00000-0  52591-4 0  9996,2 53967  53.2175 303.0772 0002207 101.0237 259.1003 15.08842794 65674,6917.872,95.437,541.264,538.21,0.0
53967.0,STARLINK-4634,PAYLOAD,2023-12-12 02:36:04,15.08835357,0.0002276,53.2178,298.9141,105.1643,254.9601,3.7221e-05,3.04e-06,0.0,0 STARLINK-4634,1 53967U 22125D   23346.10838996  .00000304  00000-0  37221-4 0  9990,2 53967  53.2178 298.9141 0002276 105.1643 254.9601 15.08835357 65811,6917.895,95.438,541.334,538.185,0.0
53967.0,STARLINK-4634,PAYLOAD,2023-12-13 04:02:15,15.08826143,0.0002072,53.2176,294.1555,95.6111,264.5118,0.00040426,6.149e-05,0.0,0 STARLINK-4634,1 53967U 22125D   23347.16823615  .00006149  00000-0  40426-3 0  9992,2 53967  53.2176 294.1555 0002072  95.6111 264.5118 15.08826143 65973,6917.923,95.438,541.221,538.354,0.0
53967.0,STARLINK-4634,PAYLOAD,2023-12-14 03:53:02,15.08842375,0.0002004,53.2167,289.6973,81.967,278.1549,0.00016009,2.261e-05,0.0,0 STARLINK-4634,1 53967U 22125D   23348.16183264  .00002261  00000-0  16009-3 0  9993,2 53967  53.2167 289.6973 0002004  81.9670 278.1549 15.08842375 66121,6917.873,95.437,541.124,538.352,0.0
53967.0,STARLINK-4634,PAYLOAD,2023-12-15 03:43:49,15.08848758,0.0002279,53.2175,285.2357,73.6585,286.4657,0.00015077,2.113e-05,0.0,0 STARLINK-4634,1 53967U 22125D   23349.15543021  .00002113  00000-0  15077-3 0  9994,2 53967  53.2175 285.2357 0002279  73.6585 286.4657 15.08848758 66207,6917.854,95.437,541.295,538.142,0.0
53967.0,STARLINK-4634,PAYLOAD,2023-12-16 01:59:13,15.08839057,0.0002337,53.2182,281.0721,76.8082,283.317,3.2245e-05,2.25e-06,0.0,0 STARLINK-4634,1 53967U 22125D   23350.08279619  .00000225  00000-0  32245-4 0  9996,2 53967  53.2182 281.0721 0002337  76.8082 283.3170 15.08839057 66417,6917.883,95.438,541.365,538.132,0.0
53967.0,STARLINK-4634,PAYLOAD,2023-12-16 22:39:14,15.08842966,0.0001853,53.2177,277.2106,101.5438,258.5762,2.432e-05,9.9e-07,0.0,0 STARLINK-4634,1 53967U 22125D   23350.94391338  .00000099  00000-0  24320-4 0  9998,2 53967  53.2177 277.2106 0001853 101.5438 258.5762 15.08842966 66478,6917.871,95.437,541.018,538.454,0.0
53967.0,STARLINK-4634,PAYLOAD,2023-12-17 01:50:00,15.08845738,0.0001951,53.2171,276.6123,92.9181,267.2034,4.7055e-05,4.61e-06,0.0,0 STARLINK-4634,1 53967U 22125D   23351.07639204  .00000461  00000-0  47055-4 0  9993,2 53967  53.2171 276.6123 0001951  92.9181 267.2034 15.08845738 66492,6917.863,95.437,541.078,538.378,0.0
53967.0,STARLINK-4634,PAYLOAD,2023-12-17 22:30:01,15.08845259,0.0002031,53.2176,272.7484,100.0869,260.0352,0.00018464,2.652e-05,0.0,0 STARLINK-4634,1 53967U 22125D   23351.93751250  .00002652  00000-0  18464-3 0  9999,2 53967  53.2176 272.7484 0002031 100.0869 260.0352 15.08845259 66625,6917.864,95.437,541.134,538.324,0.0
